{
  "type": "FeatureCollection",
  "features": [
    {
      "type": "Feature",
      "properties": {
        "norad_id": 35840,
        "name": "COSMOS 2251 DEB",
        "group": "cosmos-2251-debris",
        "lat": 39.53751553387944,
        "lon": -168.99105762566762,
        "alt_km": 699.5781067725684,
        "timestamp": "2025-12-02T10:50:47.672565+00:00",
        "meta_object_name": "COSMOS 2251 DEB",
        "meta_object_id": "1993-036ATN",
        "meta_epoch": "2025-11-30T06:53:03.692256",
        "meta_mean_motion": 14.3763162,
        "meta_eccentricity": 0.01161544,
        "meta_inclination": 73.9309,
        "meta_ra_of_asc_node": 181.2553,
        "meta_arg_of_pericenter": 86.7922,
        "meta_mean_anomaly": 274.6513,
        "meta_ephemeris_type": 0,
        "meta_classification_type": "U",
        "meta_norad_cat_id": 35840,
        "meta_element_set_no": 999,
        "meta_rev_at_epoch": 85112,
        "meta_bstar": 0.0016678167,
        "meta_mean_motion_dot": 5.39e-05,
        "meta_mean_motion_ddot": 0,
        "tle_line1": "1 35840U 93036ATN 25334.28684829  .00005390  00000+0  16678-2 0  9991",
        "tle_line2": "2 35840  73.9309 181.2553 0116154  86.7922 274.6513 14.37631620851128"
      },
      "geometry": {
        "type": "Point",
        "coordinates": [
          -168.99105762566762,
          39.53751553387944
        ]
      }
    },
    {
      "type": "Feature",
      "properties": {
        "norad_id": 35883,
        "name": "COSMOS 2251 DEB",
        "group": "cosmos-2251-debris",
        "lat": -65.79501289861442,
        "lon": 49.79001338861496,
        "alt_km": 707.5548268069488,
        "timestamp": "2025-12-02T10:50:47.672575+00:00",
        "meta_object_name": "COSMOS 2251 DEB",
        "meta_object_id": "1993-036ATW",
        "meta_epoch": "2025-11-29T02:53:29.744160",
        "meta_mean_motion": 14.50541303,
        "meta_eccentricity": 0.00841977,
        "meta_inclination": 74.0237,
        "meta_ra_of_asc_node": 95.6459,
        "meta_arg_of_pericenter": 227.8885,
        "meta_mean_anomaly": 309.997,
        "meta_ephemeris_type": 0,
        "meta_classification_type": "U",
        "meta_norad_cat_id": 35883,
        "meta_element_set_no": 999,
        "meta_rev_at_epoch": 62188,
        "meta_bstar": 0.00041574036,
        "meta_mean_motion_dot": 1.674e-05,
        "meta_mean_motion_ddot": 0,
        "tle_line1": "1 35883U 93036ATW 25333.12048315  .00001674  00000+0  41574-3 0  9999",
        "tle_line2": "2 35883  74.0237  95.6459 0084197 227.8885 309.9970 14.50541303621887"
      },
      "geometry": {
        "type": "Point",
        "coordinates": [
          49.79001338861496,
          -65.79501289861442
        ]
      }
    },
    {
      "type": "Feature",
      "properties": {
        "norad_id": 35884,
        "name": "COSMOS 2251 DEB",
        "group": "cosmos-2251-debris",
        "lat": -31.978479905394753,
        "lon": -175.03864069460525,
        "alt_km": 783.4185812690121,
        "timestamp": "2025-12-02T10:50:47.672585+00:00",
        "meta_object_name": "COSMOS 2251 DEB",
        "meta_object_id": "1993-036ATX",
        "meta_epoch": "2025-12-01T08:35:40.210656",
        "meta_mean_motion": 14.25555603,
        "meta_eccentricity": 0.01094526,
        "meta_inclination": 73.9914,
        "meta_ra_of_asc_node": 356.6148,
        "meta_arg_of_pericenter": 146.5236,
        "meta_mean_anomaly": 214.2894,
        "meta_ephemeris_type": 0,
        "meta_classification_type": "U",
        "meta_norad_cat_id": 35884,
        "meta_element_set_no": 999,
        "meta_rev_at_epoch": 22195,
        "meta_bstar": 0.0012758145,
        "meta_mean_motion_dot": 3.19e-05,
        "meta_mean_motion_ddot": 0,
        "tle_line1": "1 35884U 93036ATX 25335.35810429  .00003190  00000+0  12758-2 0  9996",
        "tle_line2": "2 35884  73.9914 356.6148 0109452 146.5236 214.2894 14.25555603221959"
      },
      "geometry": {
        "type": "Point",
        "coordinates": [
          -175.03864069460525,
          -31.978479905394753
        ]
      }
    },
    {
      "type": "Feature",
      "properties": {
        "norad_id": 35885,
        "name": "COSMOS 2251 DEB",
        "group": "cosmos-2251-debris",
        "lat": -70.00173475951941,
        "lon": -98.1650797092275,
        "alt_km": 780.52983125845,
        "timestamp": "2025-12-02T10:50:47.672595+00:00",
        "meta_object_name": "COSMOS 2251 DEB",
        "meta_object_id": "1993-036ATY",
        "meta_epoch": "2025-12-01T06:48:48.094272",
        "meta_mean_motion": 14.37483132,
        "meta_eccentricity": 0.0022714,
        "meta_inclination": 74.0277,
        "meta_ra_of_asc_node": 315.8881,
        "meta_arg_of_pericenter": 39.4634,
        "meta_mean_anomaly": 320.8169,
        "meta_ephemeris_type": 0,
        "meta_classification_type": "U",
        "meta_norad_cat_id": 35885,
        "meta_element_set_no": 999,
        "meta_rev_at_epoch": 64851,
        "meta_bstar": 0.00036957,
        "meta_mean_motion_dot": 1.083e-05,
        "meta_mean_motion_ddot": 0,
        "tle_line1": "1 35885U 93036ATY 25335.28388998  .00001083  00000+0  36957-3 0  9997",
        "tle_line2": "2 35885  74.0277 315.8881 0022714  39.4634 320.8169 14.37483132648516"
      },
      "geometry": {
        "type": "Point",
        "coordinates": [
          -98.1650797092275,
          -70.00173475951941
        ]
      }
    },
    {
      "type": "Feature",
      "properties": {
        "norad_id": 35888,
        "name": "COSMOS 2251 DEB",
        "group": "cosmos-2251-debris",
        "lat": -7.404475755712257,
        "lon": -161.61646703371295,
        "alt_km": 674.4007377370535,
        "timestamp": "2025-12-02T10:50:47.672604+00:00",
        "meta_object_name": "COSMOS 2251 DEB",
        "meta_object_id": "1993-036AUB",
        "meta_epoch": "2025-12-01T09:17:40.756128",
        "meta_mean_motion": 14.58253724,
        "meta_eccentricity": 0.00487962,
        "meta_inclination": 74.0345,
        "meta_ra_of_asc_node": 18.2767,
        "meta_arg_of_pericenter": 153.7479,
        "meta_mean_anomaly": 206.6176,
        "meta_ephemeris_type": 0,
        "meta_classification_type": "U",
        "meta_norad_cat_id": 35888,
        "meta_element_set_no": 999,
        "meta_rev_at_epoch": 86108,
        "meta_bstar": 0.00046222233,
        "meta_mean_motion_dot": 2.141e-05,
        "meta_mean_motion_ddot": 0,
        "tle_line1": "1 35888U 93036AUB 25335.38727727  .00002141  00000+0  46222-3 0  9990",
        "tle_line2": "2 35888  74.0345  18.2767 0048796 153.7479 206.6176 14.58253724861080"
      },
      "geometry": {
        "type": "Point",
        "coordinates": [
          -161.61646703371295,
          -7.404475755712257
        ]
      }
    },
    {
      "type": "Feature",
      "properties": {
        "norad_id": 35890,
        "name": "COSMOS 2251 DEB",
        "group": "cosmos-2251-debris",
        "lat": -72.82805889755087,
        "lon": 151.18514077313452,
        "alt_km": 730.643549766548,
        "timestamp": "2025-12-02T10:50:47.672615+00:00",
        "meta_object_name": "COSMOS 2251 DEB",
        "meta_object_id": "1993-036AUD",
        "meta_epoch": "2025-12-02T03:02:51.744192",
        "meta_mean_motion": 14.57171025,
        "meta_eccentricity": 0.005343,
        "meta_inclination": 73.9364,
        "meta_ra_of_asc_node": 262.9881,
        "meta_arg_of_pericenter": 29.2492,
        "meta_mean_anomaly": 331.1644,
        "meta_ephemeris_type": 0,
        "meta_classification_type": "U",
        "meta_norad_cat_id": 35890,
        "meta_element_set_no": 999,
        "meta_rev_at_epoch": 64996,
        "meta_bstar": 0.0024494,
        "meta_mean_motion_dot": 0.0001126,
        "meta_mean_motion_ddot": 0,
        "tle_line1": "1 35890U 93036AUD 25336.12698778  .00011260  00000+0  24494-2 0  9997",
        "tle_line2": "2 35890  73.9364 262.9881 0053430  29.2492 331.1644 14.57171025649967"
      },
      "geometry": {
        "type": "Point",
        "coordinates": [
          151.18514077313452,
          -72.82805889755087
        ]
      }
    },
    {
      "type": "Feature",
      "properties": {
        "norad_id": 35891,
        "name": "COSMOS 2251 DEB",
        "group": "cosmos-2251-debris",
        "lat": -67.41467541693109,
        "lon": -20.411711880664548,
        "alt_km": 445.22587691450826,
        "timestamp": "2025-12-02T10:50:47.672625+00:00",
        "meta_object_name": "COSMOS 2251 DEB",
        "meta_object_id": "1993-036AUE",
        "meta_epoch": "2025-11-28T16:23:30.685920",
        "meta_mean_motion": 15.31601125,
        "meta_eccentricity": 0.00469718,
        "meta_inclination": 73.9883,
        "meta_ra_of_asc_node": 123.9917,
        "meta_arg_of_pericenter": 255.1212,
        "meta_mean_anomaly": 104.4787,
        "meta_ephemeris_type": 0,
        "meta_classification_type": "U",
        "meta_norad_cat_id": 35891,
        "meta_element_set_no": 999,
        "meta_rev_at_epoch": 67005,
        "meta_bstar": 0.0013260761,
        "meta_mean_motion_dot": 0.00042078,
        "meta_mean_motion_ddot": 0,
        "tle_line1": "1 35891U 93036AUE 25332.68299405  .00042078  00000+0  13261-2 0  9990",
        "tle_line2": "2 35891  73.9883 123.9917 0046971 255.1212 104.4787 15.31601125670057"
      },
      "geometry": {
        "type": "Point",
        "coordinates": [
          -20.411711880664548,
          -67.41467541693109
        ]
      }
    }
  ]
}